[{"OBJECT_NAME":"HELIOS 1B","OBJECT_ID":"1999-064A","EPOCH":"2026-04-15T03:59:34.648800","MEAN_MOTION":14.87836144,"ECCENTRICITY":8.278e-5,"INCLINATION":98.166,"RA_OF_ASC_NODE":8.4765,"ARG_OF_PERICENTER":38.4612,"MEAN_ANOMALY":321.6662,"EPHEMERIS_TYPE":0,"CLASSIFICATION_TYPE":"U","NORAD_CAT_ID":25977,"ELEMENT_SET_NO":999,"REV_AT_EPOCH":69068,"BSTAR":8.7313552e-5,"MEAN_MOTION_DOT":7.4e-6,"MEAN_MOTION_DDOT":0},{"OBJECT_NAME":"TERRA","OBJECT_ID":"1999-068A","EPOCH":"2026-04-15T06:52:58.199808","MEAN_MOTION":14.61052896,"ECCENTRICITY":0.00035861,"INCLINATION":97.952,"RA_OF_ASC_NODE":157.3094,"ARG_OF_PERICENTER":77.6947,"MEAN_ANOMALY":344.7317,"EPHEMERIS_TYPE":0,"CLASSIFICATION_TYPE":"U","NORAD_CAT_ID":25994,"ELEMENT_SET_NO":999,"REV_AT_EPOCH":40042,"BSTAR":5.0943757e-5,"MEAN_MOTION_DOT":2.06e-6,"MEAN_MOTION_DDOT":0},{"OBJECT_NAME":"SL-16 R/B","OBJECT_ID":"2000-006B","EPOCH":"2026-04-15T04:27:42.205824","MEAN_MOTION":14.15829224,"ECCENTRICITY":0.00147451,"INCLINATION":71.0045,"RA_OF_ASC_NODE":21.0963,"ARG_OF_PERICENTER":131.5119,"MEAN_ANOMALY":228.7272,"EPHEMERIS_TYPE":0,"CLASSIFICATION_TYPE":"U","NORAD_CAT_ID":26070,"ELEMENT_SET_NO":999,"REV_AT_EPOCH":35372,"BSTAR":-9.9024327e-5,"MEAN_MOTION_DOT":-2.43e-6,"MEAN_MOTION_DDOT":0},{"OBJECT_NAME":"TITAN 4B R/B","OBJECT_ID":"2000-047B","EPOCH":"2026-04-15T06:24:15.782112","MEAN_MOTION":15.09865179,"ECCENTRICITY":0.00413575,"INCLINATION":67.9869,"RA_OF_ASC_NODE":297.6318,"ARG_OF_PERICENTER":353.16,"MEAN_ANOMALY":6.8979,"EPHEMERIS_TYPE":0,"CLASSIFICATION_TYPE":"U","NORAD_CAT_ID":26474,"ELEMENT_SET_NO":999,"REV_AT_EPOCH":39843,"BSTAR":9.6796414e-5,"MEAN_MOTION_DOT":1.461e-5,"MEAN_MOTION_DDOT":0},{"OBJECT_NAME":"ENVISAT","OBJECT_ID":"2002-009A","EPOCH":"2026-04-15T08:13:37.749792","MEAN_MOTION":14.39049494,"ECCENTRICITY":0.00011604,"INCLINATION":98.3786,"RA_OF_ASC_NODE":58.0815,"ARG_OF_PERICENTER":84.205,"MEAN_ANOMALY":72.6263,"EPHEMERIS_TYPE":0,"CLASSIFICATION_TYPE":"U","NORAD_CAT_ID":27386,"ELEMENT_SET_NO":999,"REV_AT_EPOCH":26444,"BSTAR":2.5296736e-5,"MEAN_MOTION_DOT":3.5e-7,"MEAN_MOTION_DDOT":0},{"OBJECT_NAME":"IDEFIX & ARIANE 42P R/B","OBJECT_ID":"2002-021B","EPOCH":"2026-04-15T06:33:43.354080","MEAN_MOTION":14.31050754,"ECCENTRICITY":0.00130069,"INCLINATION":98.591,"RA_OF_ASC_NODE":43.4521,"ARG_OF_PERICENTER":80.4202,"MEAN_ANOMALY":279.845,"EPHEMERIS_TYPE":0,"CLASSIFICATION_TYPE":"U","NORAD_CAT_ID":27422,"ELEMENT_SET_NO":999,"REV_AT_EPOCH":24925,"BSTAR":6.2140924e-5,"MEAN_MOTION_DOT":1.2e-6,"MEAN_MOTION_DDOT":0},{"OBJECT_NAME":"AQUA","OBJECT_ID":"2002-022A","EPOCH":"2026-04-15T05:49:51.286944","MEAN_MOTION":14.62058764,"ECCENTRICITY":0.00017905,"INCLINATION":98.4232,"RA_OF_ASC_NODE":73.2912,"ARG_OF_PERICENTER":107.1082,"MEAN_ANOMALY":17.1557,"EPHEMERIS_TYPE":0,"CLASSIFICATION_TYPE":"U","NORAD_CAT_ID":27424,"ELEMENT_SET_NO":999,"REV_AT_EPOCH":27407,"BSTAR":0.00010044958,"MEAN_MOTION_DOT":4.55e-6,"MEAN_MOTION_DDOT":0},{"OBJECT_NAME":"CZ-4B R/B","OBJECT_ID":"2002-024C","EPOCH":"2026-04-15T03:18:37.658304","MEAN_MOTION":14.14554104,"ECCENTRICITY":0.00490525,"INCLINATION":98.8764,"RA_OF_ASC_NODE":158.3478,"ARG_OF_PERICENTER":279.6453,"MEAN_ANOMALY":97.304,"EPHEMERIS_TYPE":0,"CLASSIFICATION_TYPE":"U","NORAD_CAT_ID":27432,"ELEMENT_SET_NO":999,"REV_AT_EPOCH":23439,"BSTAR":2.9529829e-5,"MEAN_MOTION_DOT":1.2e-7,"MEAN_MOTION_DDOT":0},{"OBJECT_NAME":"MIDORI II (ADEOS-II)","OBJECT_ID":"2002-056A","EPOCH":"2026-04-15T03:15:33.690240","MEAN_MOTION":14.2931285,"ECCENTRICITY":2.657e-5,"INCLINATION":98.7828,"RA_OF_ASC_NODE":63.8801,"ARG_OF_PERICENTER":138.0845,"MEAN_ANOMALY":222.0357,"EPHEMERIS_TYPE":0,"CLASSIFICATION_TYPE":"U","NORAD_CAT_ID":27597,"ELEMENT_SET_NO":999,"REV_AT_EPOCH":21550,"BSTAR":7.9771033e-5,"MEAN_MOTION_DOT":1.58e-6,"MEAN_MOTION_DDOT":0},{"OBJECT_NAME":"H-2A R/B","OBJECT_ID":"2002-056E","EPOCH":"2026-04-15T03:01:31.661760","MEAN_MOTION":14.33786949,"ECCENTRICITY":0.00712472,"INCLINATION":98.3262,"RA_OF_ASC_NODE":64.1189,"ARG_OF_PERICENTER":53.6386,"MEAN_ANOMALY":317.3724,"EPHEMERIS_TYPE":0,"CLASSIFICATION_TYPE":"U","NORAD_CAT_ID":27601,"ELEMENT_SET_NO":999,"REV_AT_EPOCH":21933,"BSTAR":7.9997181e-5,"MEAN_MOTION_DOT":1.87e-6,"MEAN_MOTION_DDOT":0},{"OBJECT_NAME":"CZ-4B R/B","OBJECT_ID":"2003-049C","EPOCH":"2026-04-15T05:49:30.597600","MEAN_MOTION":14.5505264,"ECCENTRICITY":0.00491695,"INCLINATION":98.6899,"RA_OF_ASC_NODE":101.5897,"ARG_OF_PERICENTER":119.4856,"MEAN_ANOMALY":241.1257,"EPHEMERIS_TYPE":0,"CLASSIFICATION_TYPE":"U","NORAD_CAT_ID":28059,"ELEMENT_SET_NO":999,"REV_AT_EPOCH":19191,"BSTAR":5.73703e-5,"MEAN_MOTION_DOT":2.0e-6,"MEAN_MOTION_DDOT":0},{"OBJECT_NAME":"CZ-2C R/B","OBJECT_ID":"2004-012C","EPOCH":"2026-04-15T03:22:28.939008","MEAN_MOTION":15.69111184,"ECCENTRICITY":0.0014007,"INCLINATION":97.7149,"RA_OF_ASC_NODE":174.0015,"ARG_OF_PERICENTER":171.5843,"MEAN_ANOMALY":188.5655,"EPHEMERIS_TYPE":0,"CLASSIFICATION_TYPE":"U","NORAD_CAT_ID":28222,"ELEMENT_SET_NO":999,"REV_AT_EPOCH":20998,"BSTAR":0.00036858999,"MEAN_MOTION_DOT":0.00042887,"MEAN_MOTION_DDOT":0},{"OBJECT_NAME":"SL-16 R/B","OBJECT_ID":"2004-021B","EPOCH":"2026-04-15T05:27:38.813184","MEAN_MOTION":14.14605634,"ECCENTRICITY":0.00062837,"INCLINATION":71.0005,"RA_OF_ASC_NODE":155.8184,"ARG_OF_PERICENTER":322.3523,"MEAN_ANOMALY":37.7159,"EPHEMERIS_TYPE":0,"CLASSIFICATION_TYPE":"U","NORAD_CAT_ID":28353,"ELEMENT_SET_NO":999,"REV_AT_EPOCH":12800,"BSTAR":3.83958e-5,"MEAN_MOTION_DOT":2.6e-7,"MEAN_MOTION_DDOT":0},{"OBJECT_NAME":"CZ-4B R/B","OBJECT_ID":"2004-035C","EPOCH":"2026-04-15T02:10:42.880512","MEAN_MOTION":15.29689763,"ECCENTRICITY":0.00312418,"INCLINATION":97.3439,"RA_OF_ASC_NODE":138.901,"ARG_OF_PERICENTER":196.1641,"MEAN_ANOMALY":163.8606,"EPHEMERIS_TYPE":0,"CLASSIFICATION_TYPE":"U","NORAD_CAT_ID":28415,"ELEMENT_SET_NO":999,"REV_AT_EPOCH":18547,"BSTAR":0.00015277317,"MEAN_MOTION_DOT":4.38e-5,"MEAN_MOTION_DDOT":0},{"OBJECT_NAME":"CZ-2C R/B","OBJECT_ID":"2004-046B","EPOCH":"2026-04-15T05:27:12.963168","MEAN_MOTION":14.27006712,"ECCENTRICITY":0.01403804,"INCLINATION":98.1974,"RA_OF_ASC_NODE":17.9339,"ARG_OF_PERICENTER":47.1843,"MEAN_ANOMALY":314.1039,"EPHEMERIS_TYPE":0,"CLASSIFICATION_TYPE":"U","NORAD_CAT_ID":28480,"ELEMENT_SET_NO":999,"REV_AT_EPOCH":11371,"BSTAR":4.4562534e-5,"MEAN_MOTION_DOT":8.0e-7,"MEAN_MOTION_DDOT":0},{"OBJECT_NAME":"ARIANE 5 R/B","OBJECT_ID":"2004-049H","EPOCH":"2026-04-15T05:06:39.365568","MEAN_MOTION":14.85336382,"ECCENTRICITY":0.00830593,"INCLINATION":98.2678,"RA_OF_ASC_NODE":275.0509,"ARG_OF_PERICENTER":232.1685,"MEAN_ANOMALY":127.1991,"EPHEMERIS_TYPE":0,"CLASSIFICATION_TYPE":"U","NORAD_CAT_ID":28499,"ELEMENT_SET_NO":999,"REV_AT_EPOCH":15121,"BSTAR":5.5893211e-5,"MEAN_MOTION_DOT":4.45e-6,"MEAN_MOTION_DDOT":0},{"OBJECT_NAME":"CZ-2D R/B","OBJECT_ID":"2005-024B","EPOCH":"2026-04-14T18:43:17.521824","MEAN_MOTION":15.63550174,"ECCENTRICITY":0.00030213,"INCLINATION":97.3553,"RA_OF_ASC_NODE":121.3376,"ARG_OF_PERICENTER":207.519,"MEAN_ANOMALY":152.5909,"EPHEMERIS_TYPE":0,"CLASSIFICATION_TYPE":"U","NORAD_CAT_ID":28738,"ELEMENT_SET_NO":999,"REV_AT_EPOCH":14541,"BSTAR":0.00032281804,"MEAN_MOTION_DOT":0.00029845,"MEAN_MOTION_DDOT":0}]
