HELIOS 1B               
1 25977U 99064A   26105.16637325  .00000740  00000+0  87314-4 0  9992
2 25977  98.1660   8.4765 0000827  38.4612 321.6662 14.87836144690684
TERRA                   
1 25994U 99068A   26105.28678472  .00000206  00000+0  50944-4 0  9992
2 25994  97.9520 157.3094 0003586  77.6947 344.7317 14.61052896400425
SL-16 R/B               
1 26070U 00006B   26105.18590516 -.00000243  00000+0 -99024-4 0  9998
2 26070  71.0045  21.0963 0014745 131.5119 228.7272 14.15829224353725
TITAN 4B R/B            
1 26474U 00047B   26105.26684933  .00001461  00000+0  96796-4 0  9991
2 26474  67.9869 297.6318 0041357 353.1600   6.8979 15.09865179398431
ENVISAT                 
1 27386U 02009A   26105.34279803  .00000035  00000+0  25297-4 0  9993
2 27386  98.3786  58.0815 0001160  84.2050  72.6263 14.39049494264446
IDEFIX & ARIANE 42P R/B 
1 27422U 02021B   26105.27341845  .00000120  00000+0  62141-4 0  9990
2 27422  98.5910  43.4521 0013006  80.4202 279.8450 14.31050754249253
AQUA                    
1 27424U 02022A   26105.24295471  .00000455  00000+0  10045-3 0  9999
2 27424  98.4232  73.2912 0001790 107.1082  17.1557 14.62058764274078
CZ-4B R/B               
1 27432U 02024C   26105.13793586  .00000012  00000+0  29530-4 0  9997
2 27432  98.8764 158.3478 0049052 279.6453  97.3040 14.14554104234397
MIDORI II (ADEOS-II)    
1 27597U 02056A   26105.13580660  .00000158  00000+0  79771-4 0  9994
2 27597  98.7828  63.8801 0000265 138.0845 222.0357 14.29312850215501
H-2A R/B                
1 27601U 02056E   26105.12606090  .00000187  00000+0  79997-4 0  9997
2 27601  98.3262  64.1189 0071247  53.6386 317.3724 14.33786949219338
CZ-4B R/B               
1 28059U 03049C   26105.24271525  .00000200  00000+0  57370-4 0  9999
2 28059  98.6899 101.5897 0049169 119.4856 241.1257 14.55052640191914
CZ-2C R/B               
1 28222U 04012C   26105.14061272  .00042887  00000+0  36859-3 0  9992
2 28222  97.7149 174.0015 0014007 171.5843 188.5655 15.69111184209987
SL-16 R/B               
1 28353U 04021B   26105.22753256  .00000026  00000+0  38396-4 0  9994
2 28353  71.0005 155.8184 0006283 322.3523  37.7159 14.14605634128004
CZ-4B R/B               
1 28415U 04035C   26105.09077408  .00004380  00000+0  15277-3 0  9990
2 28415  97.3439 138.9010 0031241 196.1641 163.8606 15.29689763185479
CZ-2C R/B               
1 28480U 04046B   26105.22723337  .00000080  00000+0  44563-4 0  9992
2 28480  98.1974  17.9339 0140380  47.1843 314.1039 14.27006712113711
ARIANE 5 R/B            
1 28499U 04049H   26105.21295562  .00000445  00000+0  55893-4 0  9991
2 28499  98.2678 275.0509 0083059 232.1685 127.1991 14.85336382151217
CZ-2D R/B               
1 28738U 05024B   26104.78006391  .00029845  00000+0  32282-3 0  9993
2 28738  97.3553 121.3376 0003021 207.5190 152.5909 15.63550174145418
